{
  "type": "FeatureCollection",
  "features": [
    {
      "type": "Feature",
      "properties": {
        "norad_id": 15362,
        "name": "NOVA 3",
        "group": "nnss",
        "lat": -10.3998741626203,
        "lon": 80.68344000091349,
        "alt_km": 1162.2978393172107,
        "timestamp": "2025-12-23T11:34:48.432910+00:00",
        "meta_object_name": "NOVA 3",
        "meta_object_id": "1984-110A",
        "meta_epoch": "2025-12-22T19:54:34.624224",
        "meta_mean_motion": 13.23045769,
        "meta_eccentricity": 0.00299327,
        "meta_inclination": 90.1219,
        "meta_ra_of_asc_node": 80.6534,
        "meta_arg_of_pericenter": 302.8865,
        "meta_mean_anomaly": 178.452,
        "meta_ephemeris_type": 0,
        "meta_classification_type": "U",
        "meta_norad_cat_id": 15362,
        "meta_element_set_no": 999,
        "meta_rev_at_epoch": 98832,
        "meta_bstar": 0.00022585614,
        "meta_mean_motion_dot": 1.03e-06,
        "meta_mean_motion_ddot": 0,
        "tle_line1": "1 15362U 84110A   25356.82956741  .00000103  00000+0  22586-3 0  9993",
        "tle_line2": "2 15362  90.1219  80.6534 0029932 302.8865 178.4520 13.23045769988321"
      },
      "geometry": {
        "type": "Point",
        "coordinates": [
          80.68344000091349,
          -10.3998741626203
        ]
      }
    },
    {
      "type": "Feature",
      "properties": {
        "norad_id": 15935,
        "name": "OSCAR 30",
        "group": "nnss",
        "lat": -34.36097195700164,
        "lon": -80.0903338247117,
        "alt_km": 1249.3686066069477,
        "timestamp": "2025-12-23T11:34:48.432920+00:00",
        "meta_object_name": "OSCAR 30",
        "meta_object_id": "1985-066A",
        "meta_epoch": "2025-12-22T20:45:25.028064",
        "meta_mean_motion": 13.36079881,
        "meta_eccentricity": 0.01690263,
        "meta_inclination": 90.1653,
        "meta_ra_of_asc_node": 100.0127,
        "meta_arg_of_pericenter": 55.6175,
        "meta_mean_anomaly": 68.9897,
        "meta_ephemeris_type": 0,
        "meta_classification_type": "U",
        "meta_norad_cat_id": 15935,
        "meta_element_set_no": 999,
        "meta_rev_at_epoch": 96588,
        "meta_bstar": 0.00016448465,
        "meta_mean_motion_dot": 1.01e-06,
        "meta_mean_motion_ddot": 0,
        "tle_line1": "1 15935U 85066A   25356.86487301  .00000101  00000+0  16448-3 0  9993",
        "tle_line2": "2 15935  90.1653 100.0127 0169026  55.6175  68.9897 13.36079881965882"
      },
      "geometry": {
        "type": "Point",
        "coordinates": [
          -80.0903338247117,
          -34.36097195700164
        ]
      }
    },
    {
      "type": "Feature",
      "properties": {
        "norad_id": 15936,
        "name": "OSCAR 24",
        "group": "nnss",
        "lat": -77.90046739830458,
        "lon": 93.33142005512224,
        "alt_km": 1226.1135201299348,
        "timestamp": "2025-12-23T11:34:48.432930+00:00",
        "meta_object_name": "OSCAR 24",
        "meta_object_id": "1985-066B",
        "meta_epoch": "2025-12-22T17:00:50.070240",
        "meta_mean_motion": 13.35937122,
        "meta_eccentricity": 0.01701816,
        "meta_inclination": 90.1791,
        "meta_ra_of_asc_node": 92.4818,
        "meta_arg_of_pericenter": 62.4983,
        "meta_mean_anomaly": 102.6279,
        "meta_ephemeris_type": 0,
        "meta_classification_type": "U",
        "meta_norad_cat_id": 15936,
        "meta_element_set_no": 999,
        "meta_rev_at_epoch": 96776,
        "meta_bstar": 0.00014928667,
        "meta_mean_motion_dot": 9.3e-07,
        "meta_mean_motion_ddot": 0,
        "tle_line1": "1 15936U 85066B   25356.70891285  .00000093  00000+0  14929-3 0  9999",
        "tle_line2": "2 15936  90.1791  92.4818 0170181  62.4983 102.6279 13.35937122967763"
      },
      "geometry": {
        "type": "Point",
        "coordinates": [
          93.33142005512224,
          -77.90046739830458
        ]
      }
    },
    {
      "type": "Feature",
      "properties": {
        "norad_id": 17070,
        "name": "POLAR BEAR",
        "group": "nnss",
        "lat": -18.412645326230752,
        "lon": 3.4710663837137896,
        "alt_km": 996.1218400718653,
        "timestamp": "2025-12-23T11:34:48.432940+00:00",
        "meta_object_name": "POLAR BEAR",
        "meta_object_id": "1986-088A",
        "meta_epoch": "2025-12-23T00:55:53.241888",
        "meta_mean_motion": 13.7525287,
        "meta_eccentricity": 0.0041291,
        "meta_inclination": 89.6171,
        "meta_ra_of_asc_node": 183.3614,
        "meta_arg_of_pericenter": 89.6168,
        "meta_mean_anomaly": 72.8852,
        "meta_ephemeris_type": 0,
        "meta_classification_type": "U",
        "meta_norad_cat_id": 17070,
        "meta_element_set_no": 999,
        "meta_rev_at_epoch": 96120,
        "meta_bstar": 9.1662e-05,
        "meta_mean_motion_dot": 1e-06,
        "meta_mean_motion_ddot": 0,
        "tle_line1": "1 17070U 86088A   25357.03881067  .00000100  00000+0  91662-4 0  9998",
        "tle_line2": "2 17070  89.6171 183.3614 0041291  89.6168  72.8852 13.75252870961200"
      },
      "geometry": {
        "type": "Point",
        "coordinates": [
          3.4710663837137896,
          -18.412645326230752
        ]
      }
    },
    {
      "type": "Feature",
      "properties": {
        "norad_id": 18361,
        "name": "OSCAR 27",
        "group": "nnss",
        "lat": 3.488480435393556,
        "lon": 79.65123954806276,
        "alt_km": 1170.0103278205997,
        "timestamp": "2025-12-23T11:34:48.432950+00:00",
        "meta_object_name": "OSCAR 27",
        "meta_object_id": "1987-080A",
        "meta_epoch": "2025-12-22T19:29:31.902720",
        "meta_mean_motion": 13.4490871,
        "meta_eccentricity": 0.01037536,
        "meta_inclination": 90.3738,
        "meta_ra_of_asc_node": 79.649,
        "meta_arg_of_pericenter": 194.7719,
        "meta_mean_anomaly": 165.0392,
        "meta_ephemeris_type": 0,
        "meta_classification_type": "U",
        "meta_norad_cat_id": 18361,
        "meta_element_set_no": 999,
        "meta_rev_at_epoch": 87692,
        "meta_bstar": 0.00017203932,
        "meta_mean_motion_dot": 1.12e-06,
        "meta_mean_motion_ddot": 0,
        "tle_line1": "1 18361U 87080A   25356.81217480  .00000112  00000+0  17204-3 0  9994",
        "tle_line2": "2 18361  90.3738  79.6490 0103753 194.7719 165.0392 13.44908710876928"
      },
      "geometry": {
        "type": "Point",
        "coordinates": [
          79.65123954806276,
          3.488480435393556
        ]
      }
    },
    {
      "type": "Feature",
      "properties": {
        "norad_id": 18362,
        "name": "OSCAR 29",
        "group": "nnss",
        "lat": -1.481682603781774,
        "lon": 80.14349952985701,
        "alt_km": 1157.6267163651337,
        "timestamp": "2025-12-23T11:34:48.432959+00:00",
        "meta_object_name": "OSCAR 29",
        "meta_object_id": "1987-080B",
        "meta_epoch": "2025-12-22T20:08:15.720576",
        "meta_mean_motion": 13.44450285,
        "meta_eccentricity": 0.01045724,
        "meta_inclination": 90.375,
        "meta_ra_of_asc_node": 80.1097,
        "meta_arg_of_pericenter": 217.9075,
        "meta_mean_anomaly": 267.5994,
        "meta_ephemeris_type": 0,
        "meta_classification_type": "U",
        "meta_norad_cat_id": 18362,
        "meta_element_set_no": 999,
        "meta_rev_at_epoch": 87645,
        "meta_bstar": 0.00017076308,
        "meta_mean_motion_dot": 1.1e-06,
        "meta_mean_motion_ddot": 0,
        "tle_line1": "1 18362U 87080B   25356.83907084  .00000110  00000+0  17076-3 0  9998",
        "tle_line2": "2 18362  90.3750  80.1097 0104572 217.9075 267.5994 13.44450285876459"
      },
      "geometry": {
        "type": "Point",
        "coordinates": [
          80.14349952985701,
          -1.481682603781774
        ]
      }
    },
    {
      "type": "Feature",
      "properties": {
        "norad_id": 19070,
        "name": "OSCAR 23",
        "group": "nnss",
        "lat": -31.774615075089933,
        "lon": -163.47327235003306,
        "alt_km": 1090.7752129140245,
        "timestamp": "2025-12-23T11:34:48.432969+00:00",
        "meta_object_name": "OSCAR 23",
        "meta_object_id": "1988-033A",
        "meta_epoch": "2025-12-23T01:46:21.934272",
        "meta_mean_motion": 13.27788834,
        "meta_eccentricity": 0.0190353,
        "meta_inclination": 90.3204,
        "meta_ra_of_asc_node": 16.7126,
        "meta_arg_of_pericenter": 151.2472,
        "meta_mean_anomaly": 266.342,
        "meta_ephemeris_type": 0,
        "meta_classification_type": "U",
        "meta_norad_cat_id": 19070,
        "meta_element_set_no": 999,
        "meta_rev_at_epoch": 82390,
        "meta_bstar": 0.00016035,
        "meta_mean_motion_dot": 8.9e-07,
        "meta_mean_motion_ddot": 0,
        "tle_line1": "1 19070U 88033A   25357.07386498  .00000089  00000+0  16035-3 0  9990",
        "tle_line2": "2 19070  90.3204  16.7126 0190353 151.2472 266.3420 13.27788834823909"
      },
      "geometry": {
        "type": "Point",
        "coordinates": [
          -163.47327235003306,
          -31.774615075089933
        ]
      }
    }
  ]
}